#dP2022  4  2 18  0  0.00000000      96 __u+U ITR00 EXT  IAC
## 2203 583200.00000000   900.00000000 59671 0.7500000000000
+  117   C06C07C08C09C10C11C12C13C14C16C19C20C21C22C23C24C25
+        C26C27C28C29C30C32C33C34C35C36C37C38C39C40C41C42C43
+        C44C45C46E01E02E03E04E05E07E08E09E10E11E12E13E14E15
+        E18E19E21E24E25E26E27E30E31E33E34E36G01G02G03G04G05
+        G06G07G08G09G10G11G12G13G14G15G16G17G18G19G20G21G22
+        G23G24G25G26G27G28G29G30G31G32J02J03R01R02R03R04R05
+        R07R08R09R11R12R13R14R15R17R18R19R20R21R22R24  0  0
++         9  8 11  9  8  8  7 10 10 10  9  9  8  8  9  8  9
++         8  8  8  8  8  9  9  8  7  9 10  9 10 10 10  8  9
++         8  8  8  8 10  8  8  8  8  8  9  8  8  8  7  9  9
++         8  8  7  9  9  8  8  8  8  8 10 10  7  8  7  8  7
++        13  8  7  9  7  8  8  9  8  9  9  7  8  7  8  8  9
++         8  8  7  8  8  8  8  8  8  8 11  9  9  9  9  8  9
++        10  8 10  9  9  9 10  9  8  8  9  9 10  9  8  0  0
%c M  cc GPS ccc cccc cccc cccc cccc ccccc ccccc ccccc ccccc
%c cc cc ccc ccc cccc cccc cccc cccc ccccc ccccc ccccc ccccc
%f  0.0000000  0.000000000  0.00000000000  0.000000000000000
%f  0.0000000  0.000000000  0.00000000000  0.000000000000000
%i    0    0    0    0      0      0      0      0         0
%i    0    0    0    0      0      0      0      0         0
/* IAC                                ULTRA-RAPID PREDICTION
/* S/V CLOCKS ARE ALIGNED TO GNSS TIME                      
/* G:C1WC2W R:C1PC2P E:C1XC5X C:C2IC6I J:C1CC2S             
/* PCV:IGS14_2196 OL/AL:FES2004  NONE     YN ORB:CoN CLK:CoN
*  2022 04 02 22  0  0.00000000
PC06  -8360.357979  23223.217051  34191.469689   -276.850728
PC07 -17773.194138  36577.694304 -11424.534230     56.225543
PC08  -1987.919145  36405.671425 -21043.724721    235.610404
PC09   4348.328806  26289.240133  33124.810750   -660.973780
PC10 -11261.363316  36819.859773 -17467.400339    137.381420
PC11 -24658.143148   2157.788733 -12848.470232    267.798460
PC12 -25882.594982  -9514.574116   4335.347697   -631.550804
PC13   4668.875408  39928.472455 -12174.031297    -71.795430
PC14 -22260.080577  13245.277208 -10432.156841    454.390103
PC16 -10335.618154  22122.454638  34521.131760    113.090021
PC19  19711.632817 -19690.796315   1391.359885    881.472944
PC20  21491.980441  -6156.347956  16702.727430   -864.975537
PC21 -10462.611532 -11931.015504 -22930.245260    -43.149370
PC22   6432.241323 -22349.391137 -15393.833159   -964.548800
PC23   2023.366726  26699.176066   7856.645250   -936.319641
PC24 -17441.687352  -5763.156733  21000.471352   -950.328644
PC25 -10111.484548  16146.900637  20374.990070   -756.708409
PC26 -14563.520226 -21576.473105  10089.783023    757.312345
PC27  20736.645296  14027.040746 -12369.832562    701.746843
PC28   2390.601185  16533.957741 -22352.381616     50.768397
PC29  17595.885931  -9932.212687  19242.977756    536.098963
PC30  27457.010207   2806.929978   4211.997424    496.285476
PC32  10519.692412  11935.297065  22948.663639   -964.830900
PC33 -19618.768875  19809.785919  -1406.995777   -971.040171
PC34 -27323.676790  -2143.853091  -5184.222337   -434.319379
PC35  -1886.546838 -16404.249492  22481.745826    210.879580
PC36  10763.291537 -15454.750048 -20574.880279   -965.205180
PC37  13559.020928  22609.593736  -9106.240275   -929.969105
PC38  -7552.303753  32572.962616 -25566.477435    222.403321
PC39 -16982.547033  20024.569797  32976.625040     34.939039
PC40 -24671.976820  32784.559439 -10089.799260    257.583437
PC41  -6704.953755  22526.093735  15103.584489   -969.750840
PC42 -21249.820478   5306.810237 -17254.601375   -945.377896
PC43 -18214.456177   9599.852788 -18833.977151   -932.292013
PC44 -21027.347468 -13419.026806  12460.323689    615.147735
PC45  -2269.782257 -26753.670780  -7650.022721    721.132704
PC46  17197.342626   4074.586834 -21589.947814   -251.049020
PE01 -17184.884653  12562.028721  20560.086200   -608.851676
PE02  17170.458142 -12751.797108 -20478.496704    290.312998
PE03  27691.316751 -10236.016901  -2059.245719   -543.914955
PE04 -14561.723762  18134.381538  18321.041442   -998.083525
PE05  24786.719469   3836.543998  15725.574261   -194.502832
PE07  -7513.802596 -15458.098114 -24088.993976   -654.658149
PE08  14189.497942 -18122.923945 -18599.862606   -505.712131
PE09   7719.979945  15230.217090  24185.417757   -470.804871
PE10   6163.306319  21943.647407 -18894.142647   -504.277807
PE11  15159.341243  23103.835429 -10649.790634   4065.606298
PE12  -3496.770900  17531.088969 -23598.664311   4682.356508
PE13 -14693.393782 -23076.320361  11289.631109    427.751568
PE14 -19165.974438  18083.997574 -18939.036054  -1800.279017
PE15   3585.560519 -17367.752458  23703.124039    754.027159
PE18  14338.967010 -12747.686560  13530.094017  -1610.552278
PE19 -28303.174495   8655.821626   -267.207885  -2361.589908
PE21 -14954.291658  -8347.048708  24136.995110   -726.175784
PE24   3133.818665  26365.732735 -13075.422073   -539.612705
PE25  14865.132250   8624.861624 -24098.729179   -569.008343
PE26 -24319.548577 -14533.876322  -8558.870507   -984.974237
PE27  -4031.376120 -25738.272325  14061.318811   -267.357728
PE30   9907.785999 -27418.823636  -5189.895805   -399.174746
PE31  -9167.881979  27826.089221   4202.347666   -494.466913
PE33 -19647.198771   1459.836370 -22081.948668   -457.979109
PE34  19537.202125  -1671.292729  22169.238500   -510.033578
PE36  24225.390823  15196.622709   7674.459580   -354.140918
PG01  20325.985721  11325.454268  12842.296950    394.088350
PG02 -13671.728654 -21518.665695   7828.198470   -652.859726
PG03  15133.898006   1517.279491  21659.044145   -190.544656
PG04  25489.113404   1564.224026   7466.346648   -179.019145
PG05  -8136.510420 -17347.778945 -18489.903512    -76.904076
PG06     -6.351497 -19057.217589  18531.915984    252.881774
PG07  15578.652735  -4431.293624 -20742.116963    318.842782
PG08  20121.680076   7265.060488 -15999.967193    -62.341507
PG09  25354.494938  -7348.664720  -3144.429716   -346.163327
PG10 -11532.105529  23298.053363  -4478.359415   -366.462725
PG11 -11909.449161 -22923.994090   6204.266435    -47.911771
PG12 -13522.501268  -6261.179412  21717.019605   -194.399838
PG13 -12040.036058 -13148.965559 -19891.840138    287.408564
PG14  13165.467573 -22383.832283  -5376.177505    -99.462094
PG15 -21260.909740  -5481.928491 -15571.715521    -71.965054
PG16   2905.881867  20613.029434 -16490.675131   -487.586627
PG17  15256.617684 -13579.459651  17439.077979    595.333243
PG18 -15258.140824   4330.715734 -21325.647883    205.065551
PG19   7989.284673 -14423.741651  20515.734667    139.249696
PG20  -3331.872823 -24184.120698 -10740.827656    516.013949
PG21  20599.121234  17058.116123   3712.077183    160.073294
PG22  -4282.608909  15500.050387  21520.664581    237.229586
PG23 -15644.119661  15846.165971 -14414.009811    -11.924069
PG24 -21664.737449 -13144.540340   8325.241475    261.473345
PG25 -16735.582328   8729.872200  18285.132466    306.776510
PG26  -3520.116849  25612.437971  -5413.389094    195.671824
PG27   8880.914986  13268.713648 -21495.629756    172.933119
PG28   8657.836376 -24994.915161   4020.051112    374.199785
PG29 -26214.797134   4042.725530  -1963.508114   -498.633933
PG30   9229.581505 -13167.737970 -21037.086306   -521.906564
PG31   1510.707466  20445.821155  16498.897656   -171.707130
PG32 -11719.092011  15312.202365  18322.069388    -97.305355
PJ02 -29349.138181  26339.689383  19798.302858     -2.424413
PJ03 -28624.062087  15905.888056 -21967.580509     -1.318336
PR01  13346.462094 -17798.215027 -12460.267785      7.533020
PR02  -3932.639177 -10458.679365 -22886.255745    514.397711
PR03 -17728.227235   2307.633476 -18119.997646     54.214553
PR04 -21347.680440  13542.235009  -3334.106177    134.811758
PR05 -13271.637801  17241.483159  13312.240577     90.471448
PR07  18174.708681  -2840.078227  17737.700711     33.396107
PR08  21343.068675 -13601.057121   3349.405320    -64.391766
PR09   7282.214065  22883.583408  -8695.056011     47.685988
PR11   9141.436364  -9732.937810 -21724.403979     42.074380
PR12   1583.429283 -23828.841960  -8972.494657     17.731987
PR13  -6608.851955 -23433.375636   7592.228149    -20.308748
PR14 -11332.827831  -8646.621691  21156.297115     76.090040
PR15  -9150.194094  10465.610533  21401.522489     97.119997
PR17 -23633.723723  -9284.843534  -2589.376143    514.434187
PR18 -18455.073888    232.095661 -17564.141410    112.305282
PR19  -5043.122010   9034.516521 -23316.336513   -183.906696
PR20  14721.810577  14575.296364 -14911.193576    -67.891295
PR21  23620.571170   8691.231601   4089.503342   -290.256115
PR22  17978.760581   -561.051605  18121.270816   -174.468355
PR24 -15442.008559 -14469.517290  14261.946808     87.260987
EOF
